NORAD_CAT_ID,OBJECT_NAME,OBJECT_TYPE,EPOCH,MEAN_MOTION,ECCENTRICITY,INCLINATION,RA_OF_ASC_NODE,ARG_OF_PERICENTER,MEAN_ANOMALY,BSTAR,MEAN_MOTION_DOT,MEAN_MOTION_DDOT,TLE_LINE0,TLE_LINE1,TLE_LINE2,SEMIMAJOR_AXIS,PERIOD,APOGEE,PERIGEE,DECAYED
55759.0,STARLINK-5081,PAYLOAD,2023-12-30 15:45:37,14.99182953,0.0002254,70.0009,81.7634,264.2493,95.841,-0.00062564,-7.717e-05,0.0,0 STARLINK-5081,1 55759U 23028U   23364.65668674 -.00007717  00000-0 -62564-3 0  9992,2 55759  70.0009  81.7634 0002254 264.2493  95.8410 14.99182953 46694,6947.556,96.052,570.987,567.855,0.0
55759.0,STARLINK-5081,PAYLOAD,2023-12-31 10:58:38,14.99133603,0.0002693,70.0005,79.742,268.6466,91.4385,-5.9557e-05,-8.19e-06,0.0,0 STARLINK-5081,1 55759U 23028U   23365.45739295 -.00000819  00000-0 -59557-4 0  9994,2 55759  70.0005  79.7420 0002693 268.6466  91.4385 14.99133603 46810,6947.709,96.055,571.445,567.703,0.0
55759.0,STARLINK-5081,PAYLOAD,2023-12-31 15:46:53,14.9913673,0.0002834,70.0,79.2357,273.063,87.0205,-3.4334e-05,-5.12e-06,0.0,0 STARLINK-5081,1 55759U 23028U   23365.65756257 -.00000512  00000-0 -34334-4 0  9999,2 55759  70.0000  79.2357 0002834 273.0630  87.0205 14.99136730 46848,6947.699,96.055,571.533,567.595,0.0
55759.0,STARLINK-5081,PAYLOAD,2024-01-01 10:59:52,14.99140295,0.0002868,70.0,77.2148,271.8357,88.2474,9.3752e-07,-8.2e-07,0.0,0 STARLINK-5081,1 55759U 23028U   24001.45824686 -.00000082  00000-0  93752-6 0  9999,2 55759  70.0000  77.2148 0002868 271.8357  88.2474 14.99140295 46968,6947.688,96.055,571.546,567.561,0.0
55759.0,STARLINK-5081,PAYLOAD,2024-01-01 14:12:02,14.99142123,0.0002478,70.001,76.8799,257.8071,102.2811,2.5451e-05,2.17e-06,0.0,0 STARLINK-5081,1 55759U 23028U   24001.59169321  .00000217  00000-0  25451-4 0  9990,2 55759  70.0010  76.8799 0002478 257.8071 102.2811 14.99142123 46986,6947.683,96.055,571.269,567.826,0.0
55759.0,STARLINK-5081,PAYLOAD,2024-01-01 15:48:07,14.99142208,0.0002489,70.001,76.7114,258.4659,101.6221,2.5419e-05,2.16e-06,0.0,0 STARLINK-5081,1 55759U 23028U   24001.65841703  .00000216  00000-0  25419-4 0  9991,2 55759  70.0010  76.7114 0002489 258.4659 101.6221 14.99142208 46990,6947.682,96.055,571.277,567.818,0.0
55759.0,STARLINK-5081,PAYLOAD,2024-01-02 11:01:06,14.99136383,0.0002642,70.0005,74.6898,258.2116,101.8747,7.1515e-05,7.78e-06,0.0,0 STARLINK-5081,1 55759U 23028U   24002.45910529  .00000778  00000-0  71515-4 0  9994,2 55759  70.0005  74.6898 0002642 258.2116 101.8747 14.99136383 47114,6947.7,96.055,571.401,567.73,0.0
55759.0,STARLINK-5081,PAYLOAD,2024-01-02 14:13:16,14.99137481,0.0002576,70.0007,74.353,257.8304,102.2567,8.4296e-05,9.34e-06,0.0,0 STARLINK-5081,1 55759U 23028U   24002.59255221  .00000934  00000-0  84296-4 0  9994,2 55759  70.0007  74.3530 0002576 257.8304 102.2567 14.99137481 47133,6947.697,96.055,571.352,567.772,0.0
55759.0,STARLINK-5081,PAYLOAD,2024-01-03 11:02:21,14.991341,0.0002566,70.001,72.1643,250.2474,109.8409,-7.7926e-05,-1.043e-05,0.0,0 STARLINK-5081,1 55759U 23028U   24003.45997092 -.00001043  00000-0 -77926-4 0  9995,2 55759  70.0010  72.1643 0002566 250.2474 109.8409 14.99134100 47269,6947.707,96.055,571.355,567.79,0.0
55759.0,STARLINK-5081,PAYLOAD,2024-01-03 14:14:31,14.9913486,0.0002732,70.0005,71.8264,256.9818,103.1037,-7.9755e-05,-1.065e-05,0.0,0 STARLINK-5081,1 55759U 23028U   24003.59341885 -.00001065  00000-0 -79755-4 0  9999,2 55759  70.0005  71.8264 0002732 256.9818 103.1037 14.99134860 47287,6947.705,96.055,571.468,567.672,0.0
55759.0,STARLINK-5081,PAYLOAD,2024-01-04 11:03:35,14.99141283,0.0003085,69.9999,69.6364,268.5662,91.5144,4.2379e-05,4.23e-06,0.0,0 STARLINK-5081,1 55759U 23028U   24004.46082340  .00000423  00000-0  42379-4 0  9991,2 55759  69.9999  69.6364 0003085 268.5662  91.5144 14.99141283 47411,6947.685,96.055,571.694,567.407,0.0
55759.0,STARLINK-5081,PAYLOAD,2024-01-04 14:15:44,14.99143171,0.0003067,69.9999,69.2997,268.1724,91.9084,5.9601e-05,6.33e-06,0.0,0 STARLINK-5081,1 55759U 23028U   24004.59426934  .00000633  00000-0  59601-4 0  9995,2 55759  69.9999  69.2997 0003067 268.1724  91.9084 14.99143171 47431,6947.679,96.055,571.675,567.414,0.0
55759.0,STARLINK-5081,PAYLOAD,2024-01-05 04:40:30,14.99133358,0.0002402,70.0011,67.7833,275.5821,84.5065,8.3422e-05,9.23e-06,0.0,0 STARLINK-5081,1 55759U 23028U   24005.19479262  .00000923  00000-0  83422-4 0  9994,2 55759  70.0011  67.7833 0002402 275.5821  84.5065 14.99133358 47526,6947.71,96.055,571.244,567.906,0.0
55759.0,STARLINK-5081,PAYLOAD,2024-01-05 14:16:59,14.99139684,0.0002588,70.0008,66.771,274.9248,85.1616,-9.1043e-05,-1.203e-05,0.0,0 STARLINK-5081,1 55759U 23028U   24005.59513774 -.00001203  00000-0 -91043-4 0  9997,2 55759  70.0008  66.7710 0002588 274.9248  85.1616 14.99139684 47589,6947.69,96.055,571.353,567.757,0.0
55759.0,STARLINK-5081,PAYLOAD,2024-01-06 04:41:44,14.99140815,0.0002787,70.0004,65.255,276.7642,83.3201,-6.1896e-06,-1.69e-06,0.0,0 STARLINK-5081,1 55759U 23028U   24006.19565166 -.00000169  00000-0 -61896-5 0  9990,2 55759  70.0004  65.2550 0002787 276.7642  83.3201 14.99140815 47678,6947.687,96.055,571.488,567.615,0.0
55759.0,STARLINK-5081,PAYLOAD,2024-01-06 12:42:09,14.99140964,0.0002794,70.0003,64.4128,276.2633,83.8209,-2.5496e-06,-1.25e-06,0.0,0 STARLINK-5081,1 55759U 23028U   24006.52927104 -.00000125  00000-0 -25496-5 0  9999,2 55759  70.0003  64.4128 0002794 276.2633  83.8209 14.99140964 47726,6947.686,96.055,571.492,567.61,0.0
55759.0,STARLINK-5081,PAYLOAD,2024-01-06 14:18:13,14.99141914,0.0002791,70.0004,64.2444,276.1904,83.8938,7.9584e-06,3e-08,0.0,0 STARLINK-5081,1 55759U 23028U   24006.59599406  .00000003  00000-0  79584-5 0  9996,2 55759  70.0004  64.2444 0002791 276.1904  83.8938 14.99141914 47739,6947.683,96.055,571.487,567.609,0.0
55759.0,STARLINK-5081,PAYLOAD,2024-01-07 11:07:18,14.99139326,0.0002736,70.0,62.0545,262.8387,97.2462,7.1812e-05,7.81e-06,0.0,0 STARLINK-5081,1 55759U 23028U   24007.46340374  .00000781  00000-0  71812-4 0  9999,2 55759  70.0000  62.0545 0002736 262.8387  97.2462 14.99139326 47868,6947.691,96.055,571.457,567.655,0.0
55759.0,STARLINK-5081,PAYLOAD,2024-01-07 14:19:27,14.99140747,0.0002729,70.0,61.7178,263.5845,96.5003,7.4737e-05,8.17e-06,0.0,0 STARLINK-5081,1 55759U 23028U   24007.59685072  .00000817  00000-0  74737-4 0  9999,2 55759  70.0000  61.7178 0002729 263.5845  96.5003 14.99140747 47889,6947.687,96.055,571.448,567.656,0.0
55759.0,STARLINK-5081,PAYLOAD,2024-01-08 11:08:32,14.99138126,0.0002728,70.0002,59.5285,264.1215,95.9634,1.3572e-05,7.2e-07,0.0,0 STARLINK-5081,1 55759U 23028U   24008.46426517  .00000072  00000-0  13572-4 0  9996,2 55759  70.0002  59.5285 0002728 264.1215  95.9634 14.99138126 48019,6947.695,96.055,571.455,567.665,0.0
55759.0,STARLINK-5081,PAYLOAD,2024-01-08 12:44:37,14.99138956,0.0002749,69.9997,59.3587,265.838,94.2466,-2.3929e-06,-1.23e-06,0.0,0 STARLINK-5081,1 55759U 23028U   24008.53098902 -.00000123  00000-0 -23929-5 0  9994,2 55759  69.9997  59.3587 0002749 265.8380  94.2466 14.99138956 48023,6947.692,96.055,571.467,567.647,0.0
55759.0,STARLINK-5081,PAYLOAD,2024-01-09 11:09:46,14.99138342,0.0002647,69.9998,56.9996,260.8574,99.2286,1.0877e-05,3.9e-07,0.0,0 STARLINK-5081,1 55759U 23028U   24009.46512386  .00000039  00000-0  10877-4 0  9995,2 55759  69.9998  56.9996 0002647 260.8574  99.2286 14.99138342 48167,6947.694,96.055,571.398,567.72,0.0
55759.0,STARLINK-5081,PAYLOAD,2024-01-09 12:45:51,14.9914076,0.0002761,69.9997,56.8319,264.2331,95.8514,1.9861e-06,-6.9e-07,0.0,0 STARLINK-5081,1 55759U 23028U   24009.53184700 -.00000069  00000-0  19861-5 0  9995,2 55759  69.9997  56.8319 0002761 264.2331  95.8514 14.99140760 48174,6947.687,96.055,571.47,567.634,0.0
55759.0,STARLINK-5081,PAYLOAD,2024-01-10 11:11:00,14.99138389,0.0002625,69.9998,54.473,264.1936,95.8924,7.3525e-05,8.02e-06,0.0,0 STARLINK-5081,1 55759U 23028U   24010.46598207  .00000802  00000-0  73525-4 0  9990,2 55759  69.9998  54.4730 0002625 264.1936  95.8924 14.99138389 48310,6947.694,96.055,571.383,567.735,0.0
55759.0,STARLINK-5081,PAYLOAD,2024-01-11 11:12:15,14.99137757,0.0002641,70.0002,51.9476,258.3792,101.7071,5.2796e-06,-2.9e-07,0.0,0 STARLINK-5081,1 55759U 23028U   24011.46684381 -.00000029  00000-0  52796-5 0  9990,2 55759  70.0002  51.9476 0002641 258.3792 101.7071 14.99137757 48465,6947.696,96.055,571.396,567.726,0.0
55759.0,STARLINK-5081,PAYLOAD,2024-01-11 12:48:20,14.99137952,0.0002643,70.0002,51.779,259.8485,100.2376,7.5944e-06,-1e-08,0.0,0 STARLINK-5081,1 55759U 23028U   24011.53356777 -.00000001  00000-0  75944-5 0  9993,2 55759  70.0002  51.7790 0002643 259.8485 100.2376 14.99137952 48479,6947.695,96.055,571.397,567.724,0.0
55759.0,STARLINK-5081,PAYLOAD,2024-01-12 11:13:29,14.99139585,0.000249,70.0006,49.4206,263.8705,96.2171,2.9715e-05,2.68e-06,0.0,0 STARLINK-5081,1 55759U 23028U   24012.46770291  .00000268  00000-0  29715-4 0  9995,2 55759  70.0006  49.4206 0002490 263.8705  96.2171 14.99139585 48616,6947.69,96.055,571.285,567.825,0.0
55759.0,STARLINK-5081,PAYLOAD,2024-01-12 12:49:34,14.99139639,0.000249,70.0006,49.252,265.1392,94.9483,3.0068e-05,2.73e-06,0.0,0 STARLINK-5081,1 55759U 23028U   24012.53442692  .00000273  00000-0  30068-4 0  9993,2 55759  70.0006  49.2520 0002490 265.1392  94.9483 14.99139639 48622,6947.69,96.055,571.285,567.825,0.0
55759.0,STARLINK-5081,PAYLOAD,2024-01-13 11:14:43,14.99137005,0.0002506,70.0006,46.8939,266.332,93.7553,2.2677e-05,1.83e-06,0.0,0 STARLINK-5081,1 55759U 23028U   24013.46856423  .00000183  00000-0  22677-4 0  9994,2 55759  70.0006  46.8939 0002506 266.3320  93.7553 14.99137005 48766,6947.698,96.055,571.305,567.822,0.0
55759.0,STARLINK-5081,PAYLOAD,2024-01-14 11:15:58,14.99140087,0.0002612,70.0003,44.367,261.4325,98.6538,1.2538e-05,5.9e-07,0.0,0 STARLINK-5081,1 55759U 23028U   24014.46942189  .00000059  00000-0  12538-4 0  9997,2 55759  70.0003  44.3670 0002612 261.4325  98.6538 14.99140087 48915,6947.689,96.055,571.369,567.739,0.0
